{
  "type": "FeatureCollection",
  "crs": {
    "type": "local-meters",
    "note": "coordinate [x, z] in metri, vedi coords.py"
  },
  "features": [
    {
      "type": "Feature",
      "id": 182092009,
      "geometry": {
        "type": "Polygon",
        "coordinates": [
          [
            [
              101.342,
              116.345
            ],
            [
              98.26,
              131.095
            ],
            [
              93.176,
              130.051
            ],
            [
              96.258,
              115.29
            ],
            [
              101.342,
              116.345
            ]
          ]
        ]
      },
      "properties": {
        "osm_id": 182092009,
        "name": null,
        "kind": "water",
        "natural": "water",
        "leisure": null,
        "landuse": null
      }
    },
    {
      "type": "Feature",
      "id": 182092010,
      "geometry": {
        "type": "Polygon",
        "coordinates": [
          [
            [
              126.531,
              126.496
            ],
            [
              134.431,
              129.74
            ],
            [
              140.063,
              117.944
            ],
            [
              130.335,
              113.823
            ],
            [
              126.531,
              126.496
            ]
          ]
        ]
      },
      "properties": {
        "osm_id": 182092010,
        "name": null,
        "kind": "water",
        "natural": "water",
        "leisure": null,
        "landuse": null
      }
    },
    {
      "type": "Feature",
      "id": 182092011,
      "geometry": {
        "type": "Polygon",
        "coordinates": [
          [
            [
              106.501,
              91.887
            ],
            [
              104.947,
              98.907
            ],
            [
              100.029,
              97.83
            ],
            [
              101.583,
              90.799
            ],
            [
              106.501,
              91.887
            ]
          ]
        ]
      },
      "properties": {
        "osm_id": 182092011,
        "name": null,
        "kind": "water",
        "natural": "water",
        "leisure": null,
        "landuse": null
      }
    },
    {
      "type": "Feature",
      "id": 182092015,
      "geometry": {
        "type": "Polygon",
        "coordinates": [
          [
            [
              171.515,
              127.029
            ],
            [
              164.155,
              139.569
            ],
            [
              159.802,
              137.036
            ],
            [
              167.154,
              124.496
            ],
            [
              171.515,
              127.029
            ]
          ]
        ]
      },
      "properties": {
        "osm_id": 182092015,
        "name": null,
        "kind": "water",
        "natural": "water",
        "leisure": null,
        "landuse": null
      }
    },
    {
      "type": "Feature",
      "id": 182092016,
      "geometry": {
        "type": "Polygon",
        "coordinates": [
          [
            [
              98.086,
              132.428
            ],
            [
              94.971,
              146.812
            ],
            [
              89.746,
              145.69
            ],
            [
              92.861,
              131.306
            ],
            [
              98.086,
              132.428
            ]
          ]
        ]
      },
      "properties": {
        "osm_id": 182092016,
        "name": null,
        "kind": "water",
        "natural": "water",
        "leisure": null,
        "landuse": null
      }
    },
    {
      "type": "Feature",
      "id": 182092017,
      "geometry": {
        "type": "Polygon",
        "coordinates": [
          [
            [
              130.618,
              112.868
            ],
            [
              133.982,
              101.672
            ],
            [
              145.662,
              106.392
            ],
            [
              140.57,
              116.878
            ],
            [
              130.618,
              112.868
            ]
          ]
        ]
      },
      "properties": {
        "osm_id": 182092017,
        "name": null,
        "kind": "water",
        "natural": "water",
        "leisure": null,
        "landuse": null
      }
    },
    {
      "type": "Feature",
      "id": 182092018,
      "geometry": {
        "type": "Polygon",
        "coordinates": [
          [
            [
              104.632,
              100.629
            ],
            [
              101.434,
              114.801
            ],
            [
              96.516,
              113.702
            ],
            [
              99.714,
              99.529
            ],
            [
              104.632,
              100.629
            ]
          ]
        ]
      },
      "properties": {
        "osm_id": 182092018,
        "name": null,
        "kind": "water",
        "natural": "water",
        "leisure": null,
        "landuse": null
      }
    },
    {
      "type": "Feature",
      "id": 182092019,
      "geometry": {
        "type": "Polygon",
        "coordinates": [
          [
            [
              125.493,
              148.477
            ],
            [
              128.126,
              142.968
            ],
            [
              122.311,
              140.547
            ],
            [
              120.608,
              146.245
            ],
            [
              125.493,
              148.477
            ]
          ]
        ]
      },
      "properties": {
        "osm_id": 182092019,
        "name": null,
        "kind": "water",
        "natural": "water",
        "leisure": null,
        "landuse": null
      }
    },
    {
      "type": "Feature",
      "id": 182092022,
      "geometry": {
        "type": "Polygon",
        "coordinates": [
          [
            [
              155.616,
              155.363
            ],
            [
              148.272,
              168.136
            ],
            [
              143.628,
              165.482
            ],
            [
              150.972,
              152.72
            ],
            [
              155.616,
              155.363
            ]
          ]
        ]
      },
      "properties": {
        "osm_id": 182092022,
        "name": null,
        "kind": "water",
        "natural": "water",
        "leisure": null,
        "landuse": null
      }
    },
    {
      "type": "Feature",
      "id": 182092023,
      "geometry": {
        "type": "Polygon",
        "coordinates": [
          [
            [
              128.558,
              142.057
            ],
            [
              134.016,
              130.617
            ],
            [
              126.215,
              127.54
            ],
            [
              122.61,
              139.558
            ],
            [
              128.558,
              142.057
            ]
          ]
        ]
      },
      "properties": {
        "osm_id": 182092023,
        "name": null,
        "kind": "water",
        "natural": "water",
        "leisure": null,
        "landuse": null
      }
    },
    {
      "type": "Feature",
      "id": 182092024,
      "geometry": {
        "type": "Polygon",
        "coordinates": [
          [
            [
              163.599,
              141.013
            ],
            [
              156.18,
              154.141
            ],
            [
              151.653,
              151.609
            ],
            [
              159.071,
              138.48
            ],
            [
              163.599,
              141.013
            ]
          ]
        ]
      },
      "properties": {
        "osm_id": 182092024,
        "name": null,
        "kind": "water",
        "natural": "water",
        "leisure": null,
        "landuse": null
      }
    },
    {
      "type": "Feature",
      "id": 566619103,
      "geometry": {
        "type": "Polygon",
        "coordinates": [
          [
            [
              175.926,
              116.866
            ],
            [
              178.36,
              112.656
            ],
            [
              175.893,
              111.234
            ],
            [
              173.459,
              115.433
            ],
            [
              175.926,
              116.866
            ]
          ]
        ]
      },
      "properties": {
        "osm_id": 566619103,
        "name": null,
        "kind": "water",
        "natural": "water",
        "leisure": null,
        "landuse": null
      }
    },
    {
      "type": "Feature",
      "id": 566619104,
      "geometry": {
        "type": "Polygon",
        "coordinates": [
          [
            [
              175.619,
              119.831
            ],
            [
              172.022,
              126.173
            ],
            [
              167.619,
              123.63
            ],
            [
              171.249,
              117.321
            ],
            [
              175.619,
              119.831
            ]
          ]
        ]
      },
      "properties": {
        "osm_id": 566619104,
        "name": null,
        "kind": "water",
        "natural": "water",
        "leisure": null,
        "landuse": null
      }
    },
    {
      "type": "Feature",
      "id": 566619105,
      "geometry": {
        "type": "Polygon",
        "coordinates": [
          [
            [
              106.127,
              88.133
            ],
            [
              107.165,
              83.391
            ],
            [
              104.382,
              82.791
            ],
            [
              103.344,
              87.522
            ],
            [
              106.127,
              88.133
            ]
          ]
        ]
      },
      "properties": {
        "osm_id": 566619105,
        "name": null,
        "kind": "water",
        "natural": "water",
        "leisure": null,
        "landuse": null
      }
    },
    {
      "type": "Feature",
      "id": 566619106,
      "geometry": {
        "type": "Polygon",
        "coordinates": [
          [
            [
              135.643,
              96.241
            ],
            [
              137.944,
              87.944
            ],
            [
              137.404,
              84.312
            ],
            [
              146.792,
              86.944
            ],
            [
              154.526,
              90.965
            ],
            [
              152.167,
              93.008
            ],
            [
              147.997,
              100.917
            ],
            [
              135.643,
              96.241
            ]
          ]
        ]
      },
      "properties": {
        "osm_id": 566619106,
        "name": null,
        "kind": "water",
        "natural": "water",
        "leisure": null,
        "landuse": null
      }
    },
    {
      "type": "Feature",
      "id": 566837611,
      "geometry": {
        "type": "Polygon",
        "coordinates": [
          [
            [
              -465.576,
              -225.987
            ],
            [
              -465.144,
              -227.098
            ],
            [
              -460.758,
              -225.476
            ],
            [
              -462.802,
              -220.011
            ],
            [
              -462.395,
              -219.856
            ],
            [
              -460.359,
              -225.309
            ],
            [
              -458.573,
              -224.654
            ],
            [
              -466.632,
              -203.018
            ],
            [
              -466.724,
              -202.962
            ],
            [
              -468.468,
              -203.607
            ],
            [
              -466.183,
              -209.726
            ],
            [
              -466.524,
              -209.849
            ],
            [
              -468.817,
              -203.74
            ],
            [
              -473.245,
              -205.384
            ],
            [
              -472.746,
              -206.517
            ],
            [
              -471.832,
              -205.44
            ],
            [
              -470.736,
              -205.251
            ],
            [
              -469.515,
              -205.784
            ],
            [
              -468.476,
              -207.183
            ],
            [
              -468.077,
              -208.938
            ],
            [
              -468.501,
              -210.215
            ],
            [
              -469.356,
              -210.748
            ],
            [
              -471.159,
              -210.815
            ],
            [
              -466.614,
              -223.155
            ],
            [
              -465.584,
              -222.022
            ],
            [
              -464.563,
              -221.511
            ],
            [
              -463.508,
              -221.888
            ],
            [
              -462.411,
              -223.255
            ],
            [
              -462.02,
              -224.687
            ],
            [
              -462.394,
              -225.543
            ],
            [
              -463.167,
              -226.076
            ],
            [
              -464.504,
              -226.22
            ],
            [
              -465.576,
              -225.987
            ]
          ]
        ]
      },
      "properties": {
        "osm_id": 566837611,
        "name": null,
        "kind": "water",
        "natural": "water",
        "leisure": null,
        "landuse": null
      }
    }
  ]
}